NORAD_CAT_ID,OBJECT_NAME,OBJECT_TYPE,EPOCH,MEAN_MOTION,ECCENTRICITY,INCLINATION,RA_OF_ASC_NODE,ARG_OF_PERICENTER,MEAN_ANOMALY,BSTAR,MEAN_MOTION_DOT,MEAN_MOTION_DDOT,TLE_LINE0,TLE_LINE1,TLE_LINE2,SEMIMAJOR_AXIS,PERIOD,APOGEE,PERIGEE,DECAYED
51964.0,STARLINK-3690,PAYLOAD,2022-04-14 06:00:00,15.73222921,0.0001228,53.2146,323.1612,122.7809,280.5092,-0.00047362,-0.00066629,0.0,0 STARLINK-3690,1 51964U 22025J   22104.25001157 -.00066629  00000-0 -47362-3 0  9992,2 51964  53.2146 323.1612 0001228 122.7809 280.5092 15.73222921  6880,6727.83,91.532,350.521,348.869,0.0
51964.0,STARLINK-3690,PAYLOAD,2022-04-14 14:00:01,15.7315133,0.0001374,53.2149,321.5105,132.1059,0.0943,-7.0321e-05,-0.00010456,0.0,0 STARLINK-3690,1 51964U 22025J   22104.58334491 -.00010456  00000-0 -70321-4 0  9997,2 51964  53.2149 321.5105 0001374 132.1059   0.0943 15.73151330  3697,6728.034000000002,91.536,350.8230000000001,348.975,0.0
51964.0,STARLINK-3690,PAYLOAD,2022-04-14 22:00:00,15.73120772,0.0001221,53.2149,319.8631,118.368,102.7394,0.00035627,0.00049506,0.0,0 STARLINK-3690,1 51964U 22025J   22104.91667824  .00049506  00000-0  35627-3 0  9998,2 51964  53.2149 319.8631 0001221 118.3680 102.7394 15.73120772  3706,6728.121,91.538,350.80800000000005,349.165,0.0
51964.0,STARLINK-3690,PAYLOAD,2022-04-15 04:00:00,15.73155709,0.0001198,53.2146,318.6257,118.2158,79.5472,0.001315,0.00187757,0.0,0 STARLINK-3690,1 51964U 22025J   22105.16667824  .00187757  00000-0  13150-2 0  9993,2 51964  53.2146 318.6257 0001198 118.2158  79.5472 15.73155709  7021,6728.021,91.536,350.69199999999995,349.08,0.0
51964.0,STARLINK-3690,PAYLOAD,2022-04-15 14:00:01,15.73334312,0.0001509,53.2149,316.5618,121.1276,277.8346,-0.00015055,-0.00021817,0.0,0 STARLINK-3690,1 51964U 22025J   22105.58334491 -.00021817  00000-0 -15055-3 0  9993,2 51964  53.2149 316.5618 0001509 121.1276 277.8346 15.73334312  7091,6727.512,91.525,350.392,348.362,0.0
51964.0,STARLINK-3690,PAYLOAD,2022-04-15 22:00:00,15.73315054,0.0001311,53.2144,314.914,113.68,14.3731,-0.00061541,-0.0008652999999999,0.0,0 STARLINK-3690,1 51964U 22025J   22105.91667824 -.00086530  00000-0 -61541-3 0  9993,2 51964  53.2144 314.9140 0001311 113.6800  14.3731 15.73315054  3672,6727.566999999999,91.526,350.314,348.55,0.0
51964.0,STARLINK-3690,PAYLOAD,2022-04-16 04:00:00,15.73297493,0.0001171,53.2137,313.6761,116.9043,347.9083,-0.0013015,-0.00180167,0.0,0 STARLINK-3690,1 51964U 22025J   22106.16667824 -.00180167  00000-0 -13015-2 0  9994,2 51964  53.2137 313.6761 0001171 116.9043 347.9083 15.73297493  7189,6727.6169999999975,91.528,350.27,348.694,0.0
51964.0,STARLINK-3690,PAYLOAD,2022-04-16 14:00:01,15.73095524,0.0001333,53.2141,311.6125,129.5837,176.3958,-0.00017293,-0.00024709,0.0,0 STARLINK-3690,1 51964U 22025J   22106.58334491 -.00024709  00000-0 -17293-3 0  9993,2 51964  53.2141 311.6125 0001333 129.5837 176.3958 15.73095524  3707,6728.193,91.539,350.955,349.161,0.0
51964.0,STARLINK-3690,PAYLOAD,2022-04-16 22:00:01,15.73072346,0.0001021,53.2143,309.9652,122.6487,272.2029,0.00049525,0.00069078,0.0,0 STARLINK-3690,1 51964U 22025J   22106.91668981  .00069078  00000-0  49525-3 0  9993,2 51964  53.2143 309.9652 0001021 122.6487 272.2029 15.73072346  7305,6728.259,91.541,350.811,349.43699999999984,0.0
51964.0,STARLINK-3690,PAYLOAD,2022-04-17 14:00:01,15.73217266,0.0001224,53.2144,306.6642,127.8124,84.6271,0.00050971,0.00071579,0.0,0 STARLINK-3690,1 51964U 22025J   22107.58334491  .00071579  00000-0  50971-3 0  9999,2 51964  53.2144 306.6642 0001224 127.8124  84.6271 15.73217266  7406,6727.846,91.532,350.534,348.88699999999994,0.0
51964.0,STARLINK-3690,PAYLOAD,2022-04-17 22:00:00,15.73252806,0.0001004,53.214,305.0164,113.0842,188.3737,7.8624e-05,0.00010453,0.0,0 STARLINK-3690,1 51964U 22025J   22107.91667824  .00010453  00000-0  78624-4 0  9995,2 51964  53.2140 305.0164 0001004 113.0842 188.3737 15.73252806  3701,6727.745,91.53,350.285,348.934,0.0
51964.0,STARLINK-3690,PAYLOAD,2022-04-18 08:00:01,15.73241228,0.0001077,53.2136,302.9522,124.0619,18.654,-9.7036e-05,-0.00014239,0.0,0 STARLINK-3690,1 51964U 22025J   22108.33334491 -.00014239  00000-0 -97036-4 0  9999,2 51964  53.2136 302.9522 0001077 124.0619  18.6540 15.73241228  7521,6727.778,91.531,350.367,348.918,0.0
51964.0,STARLINK-3690,PAYLOAD,2022-04-18 14:00:01,15.73243171,0.0001239,53.2139,301.7147,122.6508,356.8032,-0.00010094,-0.00014788,0.0,0 STARLINK-3690,1 51964U 22025J   22108.58334491 -.00014788  00000-0 -10094-3 0  9993,2 51964  53.2139 301.7147 0001239 122.6508 356.8032 15.73243171  3703,6727.772,91.531,350.471,348.80400000000014,0.0
51964.0,STARLINK-3690,PAYLOAD,2022-04-18 20:00:01,15.73226088,0.0001092,53.2139,300.4792,112.7539,343.404,-0.00048157,-0.00067737,0.0,0 STARLINK-3690,1 51964U 22025J   22108.83334491 -.00067737  00000-0 -48157-3 0  9994,2 51964  53.2139 300.4792 0001092 112.7539 343.4040 15.73226088  7608,6727.821,91.532,350.42,348.951,0.0
51964.0,STARLINK-3690,PAYLOAD,2022-04-18 22:00:00,15.73183584,0.000103,53.2143,300.0671,109.1775,99.2269,7.4313e-05,9.815e-05,0.0,0 STARLINK-3690,1 51964U 22025J   22108.91667824  .00009815  00000-0  74313-4 0  9997,2 51964  53.2143 300.0671 0001030 109.1775  99.2269 15.73183584  3708,6727.941999999999,91.534,350.5,349.11400000000015,0.0
51964.0,STARLINK-3690,PAYLOAD,2022-04-19 06:00:00,15.73205151,0.0001051,53.2143,298.4158,115.4356,181.9047,-0.00028402,-0.00040297,0.0,0 STARLINK-3690,1 51964U 22025J   22109.25001157 -.00040297  00000-0 -28402-3 0  9994,2 51964  53.2143 298.4158 0001051 115.4356 181.9047 15.73205151  7674,6727.88,91.533,350.45300000000015,349.038,0.0
51964.0,STARLINK-3690,PAYLOAD,2022-04-19 14:00:01,15.73194565,0.0001214,53.2145,296.7658,112.2218,274.0231,0.00079383,0.00112262,0.0,0 STARLINK-3690,1 51964U 22025J   22109.58334491  .00112262  00000-0  79383-3 0  9994,2 51964  53.2145 296.7658 0001214 112.2218 274.0231 15.73194565  7726,6727.911,91.533,350.592,348.959,0.0
51964.0,STARLINK-3690,PAYLOAD,2022-04-19 22:00:00,15.73263697,0.0001111,53.2142,295.118,99.2487,15.9872,-0.0004742,-0.00066824,0.0,0 STARLINK-3690,1 51964U 22025J   22109.91667824 -.00066824  00000-0 -47420-3 0  9991,2 51964  53.2142 295.1180 0001111  99.2487  15.9872 15.73263697  7775,6727.714,91.529,350.326,348.831,0.0
51964.0,STARLINK-3690,PAYLOAD,2022-04-20 14:00:01,15.73184808,0.0001315,53.2141,291.817,109.9737,183.1132,0.000133,0.00018074,0.0,0 STARLINK-3690,1 51964U 22025J   22110.58334491  .00018074  00000-0  13300-3 0  9999,2 51964  53.2141 291.8170 0001315 109.9737 183.1132 15.73184808  3701,6727.938,91.534,350.68800000000016,348.9190000000001,0.0
51964.0,STARLINK-3690,PAYLOAD,2022-04-20 22:00:00,15.73163987,0.00011,53.2143,290.1694,98.2411,283.7870000000001,0.00046066,0.00064427,0.0,0 STARLINK-3690,1 51964U 22025J   22110.91667824  .00064427  00000-0  46066-3 0  9993,2 51964  53.2143 290.1694 0001100  98.2411 283.7870 15.73163987  7937,6727.998000000001,91.535,350.603,349.12300000000016,0.0
51964.0,STARLINK-3690,PAYLOAD,2022-04-21 06:00:00,15.73163006,0.0001109,53.2161,288.5081,104.7427,6.1998,-0.0013521,-0.00185944,0.0,0 STARLINK-3690,1 51964U 22025J   22111.25001157 -.00185944  00000-0 -13521-2 0  9991,2 51964  53.2161 288.5081 0001109 104.7427   6.1998 15.73163006  7982,6728.001,91.535,350.612,349.12,0.0
51964.0,STARLINK-3690,PAYLOAD,2022-04-21 14:00:01,15.73210714,0.0001177,53.2146,286.8686,103.8963,95.9406,-5.1152e-05,-7.795e-05,0.0,0 STARLINK-3690,1 51964U 22025J   22111.58334491 -.00007795  00000-0 -51152-4 0  9998,2 51964  53.2146 286.8686 0001177 103.8963  95.9406 15.73210714  3713,6727.865,91.533,350.521,348.93800000000016,0.0
51964.0,STARLINK-3690,PAYLOAD,2022-04-21 22:00:00,15.73180548,9.82e-05,53.2141,285.2207,84.9804,203.8434,0.0007503,0.00105927,0.0,0 STARLINK-3690,1 51964U 22025J   22111.91667824  .00105927  00000-0  75030-3 0  9998,2 51964  53.2141 285.2207 0000982  84.9804 203.8434 15.73180548  3718,6727.951,91.534,350.476,349.155,0.0
51964.0,STARLINK-3690,PAYLOAD,2022-04-22 06:00:00,15.7324996,9.55e-05,53.2138,283.5691,99.921,277.8562,-7.1973e-05,-0.00010729,0.0,0 STARLINK-3690,1 51964U 22025J   22112.25001157 -.00010729  00000-0 -71973-4 0  9997,2 51964  53.2138 283.5691 0000955  99.9210 277.8562 15.73249960  8148,6727.753000000002,91.53,350.26,348.975,0.0
51964.0,STARLINK-3690,PAYLOAD,2022-04-22 14:00:01,15.73275775,0.0001151,53.2139,281.9199,96.6959,10.0301,-0.00060929,-0.0008554,0.0,0 STARLINK-3690,1 51964U 22025J   22112.58334491 -.00085540  00000-0 -60929-3 0  9994,2 51964  53.2139 281.9199 0001151  96.6959  10.0301 15.73275775  3705,6727.679,91.529,350.319,348.77,0.0
51964.0,STARLINK-3690,PAYLOAD,2022-04-22 22:00:00,15.73188253,0.0001066,53.2144,280.2684,81.6316,114.089,-0.00034773,-0.00049111,0.0,0 STARLINK-3690,1 51964U 22025J   22112.91667824 -.00049111  00000-0 -34773-3 0  9992,2 51964  53.2144 280.2684 0001066  81.6316 114.0890 15.73188253  8244,6727.929,91.534,350.511,349.076,0.0
51964.0,STARLINK-3690,PAYLOAD,2022-04-23 14:00:01,15.73228568,0.0001336,53.2178,276.9543,88.5205,284.7703,-0.00043221,-0.00060914,0.0,0 STARLINK-3690,1 51964U 22025J   22113.58334491 -.00060914  00000-0 -43221-3 0  9999,2 51964  53.2178 276.9543 0001336  88.5205 284.7703 15.73228568  8354,6727.814,91.532,350.57800000000015,348.78,0.0
51964.0,STARLINK-3690,PAYLOAD,2022-04-23 22:00:00,15.72751183,0.0001256,53.2164,275.31,90.2152,12.3076,0.00034231,0.00046775,0.0,0 STARLINK-3690,1 51964U 22025J   22113.91667824  .00046775  00000-0  34231-3 0  9993,2 51964  53.2164 275.3100 0001256  90.2152  12.3076 15.72751183  8400,6729.175,91.559,351.885,350.195,0.0
51964.0,STARLINK-3690,PAYLOAD,2022-04-24 06:00:00,15.72794586,0.0001127,53.2174,273.6557,81.8419,109.12,-0.0056428,-0.00715818,0.0,0 STARLINK-3690,1 51964U 22025J   22114.25001157 -.00715818  00000-0 -56428-2 0  9996,2 51964  53.2174 273.6557 0001127  81.8419 109.1200 15.72794586  8450,6729.051,91.557,351.675,350.158,0.0
